OBJECT_NAME,OBJECT_ID,EPOCH,MEAN_MOTION,ECCENTRICITY,INCLINATION,RA_OF_ASC_NODE,ARG_OF_PERICENTER,MEAN_ANOMALY,EPHEMERIS_TYPE,CLASSIFICATION_TYPE,NORAD_CAT_ID,ELEMENT_SET_NO,REV_AT_EPOCH,BSTAR,MEAN_MOTION_DOT,MEAN_MOTION_DDOT
STARLINK-35611,2025-259F,2026-06-28T22:11:30.079680,15.27600629,.00014838,43.0013,6.1183,268.2639,91.8043,0,U,66427,999,3650,.45004531E-3,.1215E-3,0
STARLINK-35610,2025-259G,2026-06-28T18:57:38.057184,15.27590637,.00019581,43.0021,6.8276,270.6200,89.4427,0,U,66428,999,3648,.61290754E-3,.16647E-3,0
STARLINK-35533,2025-259H,2026-06-28T18:52:04.509984,15.27567447,.00028272,43.0027,6.7988,275.7884,84.2645,0,U,66429,999,3648,.92517859E-3,.25276E-3,0
STARLINK-35470,2025-259J,2026-06-28T14:04:04.719936,15.27596218,.00010842,43.0031,7.8764,254.8329,105.2402,0,U,66430,999,3645,.40344589E-3,.10862E-3,0
STARLINK-35439,2025-259K,2026-06-28T12:26:12.878304,15.27606307,.00002864,43.0025,8.2267,242.1463,117.9360,0,U,66431,999,3644,.72159592E-3,.19664E-3,0
STARLINK-35446,2025-259L,2026-06-28T21:49:17.722560,15.27585105,.00015117,43.0036,6.0001,256.9682,103.1001,0,U,66432,999,3650,.58879821E-3,.15978E-3,0
STARLINK-35457,2025-259M,2026-06-28T12:20:39.372576,15.27595487,.0001304,43.0029,8.1956,253.9422,106.1286,0,U,66433,999,3644,.38489804E-3,.10349E-3,0
STARLINK-35389,2025-259N,2026-06-28T17:01:16.341024,15.27599045,.00012036,43.0011,7.0757,241.5887,118.4844,0,U,66434,999,3647,.46965749E-3,.12692E-3,0
STARLINK-35502,2025-259P,2026-06-28T21:34:29.429472,15.27587621,.00009477,43.0032,5.9205,255.5972,104.4775,0,U,66435,999,3650,.60733062E-3,.16491E-3,0
STARLINK-35501,2025-259Q,2026-06-28T21:41:53.420928,15.27598166,.00013177,43.0033,5.9583,259.4822,100.5882,0,U,66436,999,3650,.45041185E-3,.12159E-3,0
STARLINK-35474,2025-259R,2026-06-28T20:57:41.943168,15.27593583,.00013317,43.0010,6.5932,276.9855,83.0845,0,U,66437,999,3649,.44726386E-3,.12071E-3,0
STARLINK-34681,2025-259S,2026-06-28T22:22:36.095808,15.27596807,.00014987,43.0018,6.1735,279.6688,80.3994,0,U,66438,999,3639,.52561648E-3,.14237E-3,0
STARLINK-35327,2025-259T,2026-06-28T21:32:38.346720,15.27588576,.00014138,43.0024,5.9090,274.8163,85.2528,0,U,66439,999,3650,.33865296E-3,.9071E-4,0
STARLINK-35405,2025-259U,2026-06-28T19:06:53.074368,15.27598103,.00010819,42.9988,6.8695,274.5958,85.4770,0,U,66440,999,3648,.55547849E-3,.15063E-3,0
STARLINK-35426,2025-259V,2026-06-28T22:04:05.635488,15.27600577,.00015857,43.0026,6.0725,262.0966,97.9705,0,U,66441,999,3650,.50874463E-3,.13772E-3,0
STARLINK-34724,2025-259W,2026-06-28T19:54:58.867200,15.27626500,.00019158,43.0028,7.1240,280.0750,79.9885,0,U,66442,999,3648,.12580187E-2,.34568E-3,0
STARLINK-35219,2025-259X,2026-06-28T21:23:35.948256,15.27589287,.0001225,43.0051,6.7226,254.8176,105.2540,0,U,66443,999,3638,.12457952E-2,.34188E-3,0
STARLINK-35360,2025-259Y,2026-06-28T16:55:43.291488,15.27597600,.00007188,43.0018,7.0412,256.2286,103.8486,0,U,66444,999,3647,.39844343E-3,.10724E-3,0
STARLINK-34698,2025-259Z,2026-06-28T21:18:02.872800,15.27589718,.0001853,43.0014,6.6949,286.3734,73.6914,0,U,66445,999,3638,.75594252E-3,.20604E-3,0
STARLINK-34986,2025-259AA,2026-06-28T21:08:47.856480,15.27594003,.00017233,43.0018,6.6465,274.9306,85.1349,0,U,66446,999,3649,.10436523E-2,.28581E-3,0
STARLINK-34851,2025-259AB,2026-06-28T21:27:18.115488,15.27585367,.00013908,43.0018,6.7430,276.7378,83.3315,0,U,66447,999,3638,.55635937E-3,.15081E-3,0
STARLINK-35355,2025-259AC,2026-06-28T19:45:44.627616,15.27588188,.00001914,43.0019,7.0684,249.3922,110.6909,0,U,66448,999,3648,.49682661E-3,.13438E-3,0
STARLINK-34720,2025-259AD,2026-06-28T21:12:29.983968,15.27590653,.00014027,43.0015,6.6632,279.5546,80.5147,0,U,66449,999,3638,.38368722E-3,.10314E-3,0
STARLINK-35334,2025-259AE,2026-06-28T22:41:06.063648,15.27592226,.00015422,43.0013,6.2669,261.7021,98.3656,0,U,66450,999,3650,.93849265E-3,.25663E-3,0
STARLINK-35643,2025-262A,2026-06-27T22:29:47.634432,15.27593233,.00013747,43.0030,33.8773,273.4784,86.5911,0,U,66456,999,3576,.68788722E-3,.18723E-3,0
STARLINK-35466,2025-262B,2026-06-28T23:23:20.294016,15.27582486,.00022364,43.0037,27.8990,271.6136,88.4459,0,U,66457,999,3592,.33765804E-3,.9042E-4,0
STARLINK-35684,2025-262C,2026-06-28T23:27:02.585664,15.27592983,.00013234,43.0036,27.9199,267.1296,92.9405,0,U,66458,999,3592,.54132135E-3,.14669E-3,0
STARLINK-35449,2025-262D,2026-06-28T23:14:05.301024,15.27590092,.00012685,43.0031,27.8508,260.4506,99.6202,0,U,66459,999,3592,.4628144E-3,.12499E-3,0
STARLINK-35424,2025-262E,2026-06-28T14:55:33.057696,15.27589649,.00005785,43.0027,29.5510,279.1514,80.9272,0,U,66460,999,3587,.32310812E-3,.8642E-4,0
STARLINK-35132,2025-262F,2026-06-28T14:51:50.092128,15.27576597,.00006245,43.0022,29.5309,254.8676,105.2107,0,U,66461,999,3587,.49986196E-3,.13517E-3,0
