[
  {
    "name": "STARLINK-35611",
    "noradId": "66427",
    "line1": "1 66427U 25259F   26179.92465370  .00012150  00000+0  45005-3 0  9994",
    "line2": "2 66427  43.0013   6.1183 0001483 268.2639  91.8043 15.27600629 36506"
  },
  {
    "name": "STARLINK-35610",
    "noradId": "66428",
    "line1": "1 66428U 25259G   26179.79002381  .00016647  00000+0  61291-3 0  9999",
    "line2": "2 66428  43.0021   6.8276 0001958 270.6200  89.4427 15.27590637 36487"
  },
  {
    "name": "STARLINK-35533",
    "noradId": "66429",
    "line1": "1 66429U 25259H   26179.78616331  .00025276  00000+0  92518-3 0  9999",
    "line2": "2 66429  43.0027   6.7988 0002827 275.7884  84.2645 15.27567447 36481"
  },
  {
    "name": "STARLINK-35470",
    "noradId": "66430",
    "line1": "1 66430U 25259J   26179.58616574  .00010862  00000+0  40345-3 0  9994",
    "line2": "2 66430  43.0031   7.8764 0001084 254.8329 105.2402 15.27596218 36458"
  },
  {
    "name": "STARLINK-35439",
    "noradId": "66431",
    "line1": "1 66431U 25259K   26179.51820461  .00019664  00000+0  72160-3 0  9999",
    "line2": "2 66431  43.0025   8.2267 0000286 242.1463 117.9360 15.27606307 36440"
  },
  {
    "name": "STARLINK-35446",
    "noradId": "66432",
    "line1": "1 66432U 25259L   26179.90923290  .00015978  00000+0  58880-3 0  9994",
    "line2": "2 66432  43.0036   6.0001 0001511 256.9682 103.1001 15.27585105 36501"
  },
  {
    "name": "STARLINK-35457",
    "noradId": "66433",
    "line1": "1 66433U 25259M   26179.51434459  .00010349  00000+0  38490-3 0  9998",
    "line2": "2 66433  43.0029   8.1956 0001304 253.9422 106.1286 15.27595487 36440"
  },
  {
    "name": "STARLINK-35389",
    "noradId": "66434",
    "line1": "1 66434U 25259N   26179.70921691  .00012692  00000+0  46966-3 0  9999",
    "line2": "2 66434  43.0011   7.0757 0001203 241.5887 118.4844 15.27599045 36478"
  },
  {
    "name": "STARLINK-35502",
    "noradId": "66435",
    "line1": "1 66435U 25259P   26179.89895173  .00016491  00000+0  60733-3 0  9994",
    "line2": "2 66435  43.0032   5.9205 0000947 255.5972 104.4775 15.27587621 36500"
  },
  {
    "name": "STARLINK-35501",
    "noradId": "66436",
    "line1": "1 66436U 25259Q   26179.90409052  .00012159  00000+0  45041-3 0  9996",
    "line2": "2 66436  43.0033   5.9583 0001317 259.4822 100.5882 15.27598166 36502"
  },
  {
    "name": "STARLINK-35474",
    "noradId": "66437",
    "line1": "1 66437U 25259R   26179.87340212  .00012071  00000+0  44726-3 0  9997",
    "line2": "2 66437  43.0010   6.5932 0001331 276.9855  83.0845 15.27593583 36499"
  },
  {
    "name": "STARLINK-34681",
    "noradId": "66438",
    "line1": "1 66438U 25259S   26179.93236222  .00014237  00000+0  52562-3 0  9993",
    "line2": "2 66438  43.0018   6.1735 0001498 279.6688  80.3994 15.27596807 36399"
  },
  {
    "name": "STARLINK-35327",
    "noradId": "66439",
    "line1": "1 66439U 25259T   26179.89766605  .00009071  00000+0  33865-3 0  9997",
    "line2": "2 66439  43.0024   5.9090 0001413 274.8163  85.2528 15.27588576 36504"
  },
  {
    "name": "STARLINK-35405",
    "noradId": "66440",
    "line1": "1 66440U 25259U   26179.79644762  .00015063  00000+0  55548-3 0  9997",
    "line2": "2 66440  42.9988   6.8695 0001081 274.5958  85.4770 15.27598103 36489"
  },
  {
    "name": "STARLINK-35426",
    "noradId": "66441",
    "line1": "1 66441U 25259V   26179.91950967  .00013772  00000+0  50874-3 0  9991",
    "line2": "2 66441  43.0026   6.0725 0001585 262.0966  97.9705 15.27600577 36509"
  },
  {
    "name": "STARLINK-34724",
    "noradId": "66442",
    "line1": "1 66442U 25259W   26179.82984800  .00034568  00000+0  12580-2 0  9992",
    "line2": "2 66442  43.0028   7.1240 0001915 280.0750  79.9885 15.27626500 36484"
  },
  {
    "name": "STARLINK-35219",
    "noradId": "66443",
    "line1": "1 66443U 25259X   26179.89138829  .00034188  00000+0  12458-2 0  9994",
    "line2": "2 66443  43.0051   6.7226 0001225 254.8176 105.2540 15.27589287 36385"
  },
  {
    "name": "STARLINK-35360",
    "noradId": "66444",
    "line1": "1 66444U 25259Y   26179.70536217  .00010724  00000+0  39844-3 0  9997",
    "line2": "2 66444  43.0018   7.0412 0000718 256.2286 103.8486 15.27597600 36475"
  },
  {
    "name": "STARLINK-34698",
    "noradId": "66445",
    "line1": "1 66445U 25259Z   26179.88753325  .00020604  00000+0  75594-3 0  9998",
    "line2": "2 66445  43.0014   6.6949 0001853 286.3734  73.6914 15.27589718 36386"
  },
  {
    "name": "STARLINK-34986",
    "noradId": "66446",
    "line1": "1 66446U 25259AA  26179.88110945  .00028581  00000+0  10437-2 0  9990",
    "line2": "2 66446  43.0018   6.6465 0001723 274.9306  85.1349 15.27594003 36493"
  },
  {
    "name": "STARLINK-34851",
    "noradId": "66447",
    "line1": "1 66447U 25259AB  26179.89395967  .00015081  00000+0  55636-3 0  9993",
    "line2": "2 66447  43.0018   6.7430 0001390 276.7378  83.3315 15.27585367 36380"
  },
  {
    "name": "STARLINK-35355",
    "noradId": "66448",
    "line1": "1 66448U 25259AC  26179.82343319  .00013438  00000+0  49683-3 0  9990",
    "line2": "2 66448  43.0019   7.0684 0000191 249.3922 110.6909 15.27588188 36484"
  },
  {
    "name": "STARLINK-34720",
    "noradId": "66449",
    "line1": "1 66449U 25259AD  26179.88368037  .00010314  00000+0  38369-3 0  9990",
    "line2": "2 66449  43.0015   6.6632 0001402 279.5546  80.5147 15.27590653 36380"
  },
  {
    "name": "STARLINK-35334",
    "noradId": "66450",
    "line1": "1 66450U 25259AE  26179.94520907  .00025663  00000+0  93849-3 0  9992",
    "line2": "2 66450  43.0013   6.2669 0001542 261.7021  98.3656 15.27592226 36506"
  },
  {
    "name": "STARLINK-35643",
    "noradId": "66456",
    "line1": "1 66456U 25262A   26178.93735688  .00018723  00000+0  68789-3 0  9998",
    "line2": "2 66456  43.0030  33.8773 0001374 273.4784  86.5911 15.27593233 35761"
  },
  {
    "name": "STARLINK-35466",
    "noradId": "66457",
    "line1": "1 66457U 25262B   26179.97454044  .00009042  00000+0  33766-3 0  9999",
    "line2": "2 66457  43.0037  27.8990 0002236 271.6136  88.4459 15.27582486 35926"
  },
  {
    "name": "STARLINK-35684",
    "noradId": "66458",
    "line1": "1 66458U 25262C   26179.97711326  .00014669  00000+0  54132-3 0  9990",
    "line2": "2 66458  43.0036  27.9199 0001323 267.1296  92.9405 15.27592983 35925"
  },
  {
    "name": "STARLINK-35449",
    "noradId": "66459",
    "line1": "1 66459U 25262D   26179.96811691  .00012499  00000+0  46281-3 0  9991",
    "line2": "2 66459  43.0031  27.8508 0001268 260.4506  99.6202 15.27590092 35920"
  },
  {
    "name": "STARLINK-35424",
    "noradId": "66460",
    "line1": "1 66460U 25262E   26179.62191039  .00008642  00000+0  32311-3 0  9997",
    "line2": "2 66460  43.0027  29.5510 0000578 279.1514  80.9272 15.27589649 35878"
  },
  {
    "name": "STARLINK-35132",
    "noradId": "66461",
    "line1": "1 66461U 25262F   26179.61932977  .00013517  00000+0  49986-3 0  9994",
    "line2": "2 66461  43.0022  29.5309 0000624 254.8676 105.2107 15.27576597 35877"
  }
]